*******************************************************************************
Ephemeris / PORT_LOGIN Sun Nov 27 10:14:22 2011 Pasadena, USA    / Horizons    
*******************************************************************************
Target body name: Atlas (615)                     {source: SAT342}
Center body name: Solar System Barycenter (0)     {source: DE405}
Center-site name: BODY CENTER
*******************************************************************************
Start time      : A.D. 2001-Jan-01 10:00:00.0000 CT 
Stop  time      : A.D. 2001-Jan-02 00:00:00.0000 CT 
Step-size       : 60 minutes
*******************************************************************************
Center geodetic : 0.00000000,0.00000000,0.0000000 {E-lon(deg),Lat(deg),Alt(km)}
Center cylindric: 0.00000000,0.00000000,0.0000000 {E-lon(deg),Dxy(km),Dz(km)}
Center radii    : (undefined)                                                  
Output units    : AU-D                                                         
Output format   : 03
Reference frame : ICRF/J2000.0                                                 
Output type     : GEOMETRIC cartesian states
Coordinate systm: Earth Mean Equator and Equinox of Reference Epoch            
*******************************************************************************
JDCT 
   X     Y     Z
   VX    VY    VZ
   LT    RG    RR
*******************************************************************************
$$SOE
2451910.916666667 = A.D. 2001-Jan-01 10:00:00.0000 (CT)
   4.678134022388995E+00  7.289917761640150E+00  2.809794371940617E+00
  -2.370930484613941E-03 -6.661539985303343E-03  1.721994047900441E-03
   5.259299486066648E-02  9.106194776936146E+00 -6.019546186081879E-03
2451910.958333333 = A.D. 2001-Jan-01 11:00:00.0000 (CT)
   4.678113833313362E+00  7.289675932632511E+00  2.809856724540675E+00
   1.255716804825800E-03 -4.680723931634967E-03  1.263953546774743E-03
   5.259192797383255E-02  9.106010051207166E+00 -2.711950231174079E-03
2451911.000000000 = A.D. 2001-Jan-01 12:00:00.0000 (CT)
   4.678222088053880E+00  7.289546592671309E+00  2.809899736870878E+00
   3.696476600684524E-03 -1.348374270900861E-03  8.084418984318527E-04
   5.259172783809202E-02  9.105975398777888E+00  1.069137754115972E-03
2451911.041666667 = A.D. 2001-Jan-01 13:00:00.0000 (CT)
   4.678398943753008E+00  7.289573706393014E+00  2.809925321395434E+00
   4.496890344452555E-03  2.709400940329072E-03  4.406770971586013E-04
   5.259242356350366E-02  9.106095859898735E+00  4.615248430592691E-03
2451911.083333333 = A.D. 2001-Jan-01 14:00:00.0000 (CT)
   4.678571874006688E+00  7.289771901816620E+00  2.809938642503210E+00
   3.511924008216542E-03  6.733400941942010E-03  2.290490539409296E-04
   5.259387677111927E-02  9.106347474997554E+00  7.265191653192474E-03
2451911.125000000 = A.D. 2001-Jan-01 15:00:00.0000 (CT)
   4.678669285333102E+00  7.290123884731517E+00  2.809947135078887E+00
   9.300529431368939E-04  9.974932030802590E-03  2.124720740126193E-04
   5.259580831557067E-02  9.106681911552108E+00  8.528565775669485E-03
2451911.166666667 = A.D. 2001-Jan-01 16:00:00.0000 (CT)
   4.678633816617827E+00  7.290583829664781E+00  2.809959110237886E+00
  -2.765352161409636E-03  1.183446139315795E-02  3.934974273479418E-04
   5.259785097006691E-02  9.107035586214561E+00  8.174753870737617E-03
2451911.208333333 = A.D. 2001-Jan-01 17:00:00.0000 (CT)
   4.678432873632137E+00  7.291085996760546E+00  2.809982214172554E+00
  -6.887680206800357E-03  1.197012309853363E-02  7.382107746340528E-04
   5.259961778441532E-02  9.107341500635938E+00  6.272522727263669E-03
2451911.250000000 = A.D. 2001-Jan-01 18:00:00.0000 (CT)
   4.678064544960497E+00  7.291556914932915E+00  2.810022021854061E+00
  -1.067360212464878E-02  1.035813159689335E-02  1.182671849419707E-03
   5.260077342964967E-02  9.107541594405554E+00  3.175219135319476E-03
2451911.291666667 = A.D. 2001-Jan-01 19:00:00.0000 (CT)
   4.677557907941310E+00  7.291928908896914E+00  2.810081014566781E+00
  -1.342189969580577E-02  7.296150257640707E-03  1.644614005971557E-03
   5.260109576838090E-02  9.107597405626771E+00 -5.442934353720425E-04
2451911.333333333 = A.D. 2001-Jan-01 20:00:00.0000 (CT)
   4.676967702769330E+00  7.292152564864901E+00  2.810158120275131E+00
  -1.462112656930058E-02  3.349727413833396E-03  2.038375167789072E-03
   5.260051681807706E-02  9.107497163489070E+00 -4.197383339701562E-03
2451911.375000000 = A.D. 2001-Jan-01 21:00:00.0000 (CT)
   4.676364302236572E+00  7.292205914362028E+00  2.810248900524963E+00
  -1.404442482987590E-02 -7.495488737944036E-04  2.290557607475160E-03
   5.259913577514902E-02  9.107258043318573E+00 -7.104846963234770E-03
2451911.416666667 = A.D. 2001-Jan-01 22:00:00.0000 (CT)
   4.675820726250150E+00  7.292098642451796E+00  2.810346358073224E+00
  -1.179418751915743E-02 -4.237684439770921E-03  2.353712370924020E-03
   5.259720142382962E-02  9.106923120769892E+00 -8.722416051916364E-03
2451911.458333333 = A.D. 2001-Jan-01 23:00:00.0000 (CT)
   4.675399029882826E+00  7.291870456003126E+00  2.810442228485597E+00
  -8.286579344332114E-03 -6.460713721193972E-03  2.215496019634230E-03
   5.259506657940189E-02  9.106553483915613E+00 -8.743947872905488E-03
2451911.500000000 = A.D. 2001-Jan-02 00:00:00.0000 (CT)
   4.675138604054410E+00  7.291583793622916E+00  2.810528523813330E+00
  -4.176252767939734E-03 -6.999372100159209E-03  1.901372594297560E-03
   5.259312248691012E-02  9.106216874735221E+00 -7.161833250096788E-03
$$EOE
*******************************************************************************
Coordinate system description:

  Earth Mean Equator and Equinox of Reference Epoch

    Reference epoch: J2000.0
    xy-plane: plane of the Earth's mean equator at the reference epoch
    x-axis  : out along ascending node of instantaneous plane of the Earth's
              orbit and the Earth's mean equator at the reference epoch
    z-axis  : along the Earth mean north pole at the reference epoch

Symbol meaning [1 AU=149597870.691 km, 1 day=86400.0 s]:

    JDCT     Epoch Julian Date, Coordinate Time
      X      x-component of position vector (AU)                               
      Y      y-component of position vector (AU)                               
      Z      z-component of position vector (AU)                               
      VX     x-component of velocity vector (AU/day)                           
      VY     y-component of velocity vector (AU/day)                           
      VZ     z-component of velocity vector (AU/day)                           
      LT     One-way down-leg Newtonian light-time (day)                       
      RG     Range; distance from coordinate center (AU)                       
      RR     Range-rate; radial velocity wrt coord. center (AU/day)            

Geometric states/elements have no aberration corrections applied.

 Computations by ...
     Solar System Dynamics Group, Horizons On-Line Ephemeris System
     4800 Oak Grove Drive, Jet Propulsion Laboratory
     Pasadena, CA  91109   USA
     Information: http://ssd.jpl.nasa.gov/
     Connect    : telnet://ssd.jpl.nasa.gov:6775  (via browser)
                  telnet ssd.jpl.nasa.gov 6775    (via command-line)
     Author     : Jon.Giorgini@jpl.nasa.gov
*******************************************************************************
